{
  "2300": {
    "valid_start": "2026-06-29 00:00:00",
    "issued_utc": "2300",
    "issued_day": 28,
    "base_group": {
      "dir": "094",
      "spd": "06",
      "gust": "10",
      "vis": "3120",
      "wx": "",
      "cloud": "BKN012",
      "trends": [],
      "badge": "MME 2300Z Shift",
      "metrics": {
        "leader_rmse": "N/A",
        "leader_strat": "N/A"
      }
    },
    "taf_text": "FTID40 WAWP 282300Z\nTAF WAWP 282300Z 2900/3000 09406KT 3120 BKN012=",
    "warnings": []
  },
  "0500": {
    "valid_start": "2026-06-29 06:00:00",
    "issued_utc": "0500",
    "issued_day": 29,
    "base_group": {
      "dir": "088",
      "spd": "04",
      "gust": "07",
      "vis": "3120",
      "wx": "",
      "cloud": "BKN010",
      "trends": [],
      "badge": "MME 0500Z Shift",
      "metrics": {
        "leader_rmse": "N/A",
        "leader_strat": "N/A"
      }
    },
    "taf_text": "FTID40 WAWP 290500Z\nTAF WAWP 290500Z 2906/3006 08804KT 3120 BKN010=",
    "warnings": []
  },
  "1100": {
    "valid_start": "2026-06-29 12:00:00",
    "issued_utc": "1100",
    "issued_day": 29,
    "base_group": {
      "dir": "134",
      "spd": "04",
      "gust": "10",
      "vis": "7999",
      "wx": "",
      "cloud": "BKN036",
      "trends": [],
      "badge": "MME 1100Z Shift",
      "metrics": {
        "leader_rmse": "N/A",
        "leader_strat": "N/A"
      }
    },
    "taf_text": "FTID40 WAWP 291100Z\nTAF WAWP 291100Z 2912/3012 13404KT 7999 BKN036=",
    "warnings": []
  },
  "1700": {
    "valid_start": "2026-06-28 18:00:00",
    "issued_utc": "1700",
    "issued_day": 28,
    "base_group": {
      "dir": "081",
      "spd": "06",
      "gust": "11",
      "vis": "9999",
      "wx": "",
      "cloud": "BKN022",
      "trends": [],
      "badge": "MME 1700Z Shift",
      "metrics": {
        "leader_rmse": "N/A",
        "leader_strat": "N/A"
      }
    },
    "taf_text": "FTID40 WAWP 281700Z\nTAF WAWP 281700Z 2818/2918 08106KT 9999 BKN022=",
    "warnings": []
  },
  "default": {
    "valid_start": "2026-06-28 15:00:00",
    "issued_utc": "1400",
    "issued_day": 28,
    "base_group": {
      "dir": "095",
      "spd": "02",
      "gust": "07",
      "vis": "8499",
      "wx": "",
      "cloud": "BKN031",
      "trends": [],
      "badge": "MME 1400Z Shift",
      "metrics": {
        "leader_rmse": "N/A",
        "leader_strat": "N/A"
      }
    },
    "taf_text": "FTID40 WAWP 281400Z\nTAF WAWP 281400Z 2815/2915 09502KT 8499 BKN031=",
    "warnings": []
  }
}