{
  "2300": {
    "valid_start": "2026-06-29 00:00:00",
    "issued_utc": "2300",
    "issued_day": 28,
    "base_group": {
      "dir": "100",
      "spd": "05",
      "gust": "10",
      "vis": "3100",
      "wx": "",
      "cloud": "BKN012",
      "trends": [],
      "badge": "MME 2300Z Shift",
      "metrics": {
        "leader_rmse": "N/A",
        "leader_strat": "N/A"
      }
    },
    "taf_text": "FTID40 WAWP 282300Z\nTAF WAWP 282300Z 2900/3000 10005KT 3100 BKN012=",
    "warnings": []
  },
  "0500": {
    "valid_start": "2026-06-29 06:00:00",
    "issued_utc": "0500",
    "issued_day": 29,
    "base_group": {
      "dir": "090",
      "spd": "04",
      "gust": "07",
      "vis": "3100",
      "wx": "",
      "cloud": "BKN010",
      "trends": [],
      "badge": "MME 0500Z Shift",
      "metrics": {
        "leader_rmse": "N/A",
        "leader_strat": "N/A"
      }
    },
    "taf_text": "FTID40 WAWP 290500Z\nTAF WAWP 290500Z 2906/3006 09004KT 3100 BKN010=",
    "warnings": []
  },
  "1100": {
    "valid_start": "2026-06-29 12:00:00",
    "issued_utc": "1100",
    "issued_day": 29,
    "base_group": {
      "dir": "160",
      "spd": "04",
      "gust": "10",
      "vis": "7000",
      "wx": "",
      "cloud": "BKN036",
      "trends": [],
      "badge": "MME 1100Z Shift",
      "metrics": {
        "leader_rmse": "N/A",
        "leader_strat": "N/A"
      }
    },
    "taf_text": "FTID40 WAWP 291100Z\nTAF WAWP 291100Z 2912/3012 16004KT 7000 BKN036=",
    "warnings": []
  },
  "1700": {
    "valid_start": "2026-06-28 18:00:00",
    "issued_utc": "1700",
    "issued_day": 28,
    "base_group": {
      "dir": "080",
      "spd": "05",
      "gust": "11",
      "vis": "9999",
      "wx": "",
      "cloud": "BKN022",
      "trends": [],
      "badge": "MME 1700Z Shift",
      "metrics": {
        "leader_rmse": "N/A",
        "leader_strat": "N/A"
      }
    },
    "taf_text": "FTID40 WAWP 281700Z\nTAF WAWP 281700Z 2818/2918 08005KT 9999 BKN022=",
    "warnings": []
  },
  "default": {
    "valid_start": "2026-06-28 15:00:00",
    "issued_utc": "1400",
    "issued_day": 28,
    "base_group": {
      "dir": "100",
      "spd": "02",
      "gust": "07",
      "vis": "8000",
      "wx": "",
      "cloud": "BKN031",
      "trends": [
        {
          "type": "BECMG",
          "time_str": "2816/2817",
          "time_h_start": 16,
          "time_h_end": 17,
          "wx": "NSW",
          "vis": "9999",
          "cloud": "SCT018",
          "dir": "",
          "spd": ""
        }
      ],
      "badge": "MME 1400Z Shift",
      "metrics": {
        "leader_rmse": "N/A",
        "leader_strat": "N/A"
      }
    },
    "taf_text": "FTID40 WAWP 281400Z\nTAF WAWP 281400Z 2815/2915 10002KT 8000 BKN031\nBECMG 2816/2817 9999 NSW=",
    "warnings": []
  }
}