{
  "2300": {
    "valid_start": "2026-07-05 08:00:00",
    "issued_utc": "2300",
    "issued_day": 4,
    "base_group": {
      "dir": "090",
      "spd": "04",
      "gust": "09",
      "vis": "9999",
      "wx": "",
      "cloud": "FEW019",
      "rain": 0.0,
      "rain_mmh": 0.0,
      "trends": [],
      "badge": "MME 2300Z Shift",
      "metrics": {
        "leader_rmse": "N/A",
        "leader_strat": "N/A"
      }
    },
    "taf_text": "FTID40 WAWP 042300\nTAF WAWP 042300Z 0500/0600 09004KT 9999 FEW019=",
    "narration": "Secara umum cuaca berawan sebagian dengan jarak pandang baik. Angin dominan bertiup dengan kecepatan ringan hingga sedang (4 KT).",
    "warnings": []
  },
  "0500": {
    "valid_start": "2026-07-05 14:00:00",
    "issued_utc": "0500",
    "issued_day": 5,
    "base_group": {
      "dir": "110",
      "spd": "05",
      "gust": "11",
      "vis": "9999",
      "wx": "",
      "cloud": "FEW043",
      "rain": 0.0,
      "rain_mmh": 0.0,
      "trends": [],
      "badge": "MME 0500Z Shift",
      "metrics": {
        "leader_rmse": "N/A",
        "leader_strat": "N/A"
      }
    },
    "taf_text": "FTID40 WAWP 050500\nTAF WAWP 050500Z 0506/0606 11005KT 9999 FEW043=",
    "narration": "Secara umum cuaca berawan sebagian dengan jarak pandang baik. Angin dominan bertiup dengan kecepatan ringan hingga sedang (5 KT).",
    "warnings": []
  },
  "1100": {
    "valid_start": "2026-07-05 20:00:00",
    "issued_utc": "1100",
    "issued_day": 5,
    "base_group": {
      "dir": "080",
      "spd": "05",
      "gust": "11",
      "vis": "9999",
      "wx": "",
      "cloud": "FEW018",
      "rain": 0.0,
      "rain_mmh": 0.0,
      "trends": [],
      "badge": "MME 1100Z Shift",
      "metrics": {
        "leader_rmse": "N/A",
        "leader_strat": "N/A"
      }
    },
    "taf_text": "FTID40 WAWP 051100\nTAF WAWP 051100Z 0512/0612 08005KT 9999 FEW018=",
    "narration": "Secara umum cuaca berawan sebagian dengan jarak pandang baik. Angin dominan bertiup dengan kecepatan ringan hingga sedang (5 KT).",
    "warnings": []
  },
  "1700": {
    "valid_start": "2026-07-06 02:00:00",
    "issued_utc": "1700",
    "issued_day": 5,
    "base_group": {
      "dir": "090",
      "spd": "05",
      "gust": "12",
      "vis": "9999",
      "wx": "",
      "cloud": "FEW180",
      "rain": 0.0,
      "rain_mmh": 0.0,
      "trends": [],
      "badge": "MME 1700Z Shift",
      "metrics": {
        "leader_rmse": "N/A",
        "leader_strat": "N/A"
      }
    },
    "taf_text": "FTID40 WAWP 051700\nTAF WAWP 051700Z 0518/0618 09005KT CAVOK=",
    "narration": "Secara umum cuaca berawan sebagian dengan jarak pandang baik. Angin dominan bertiup dengan kecepatan ringan hingga sedang (5 KT).",
    "warnings": []
  },
  "default": {
    "valid_start": "2026-07-05 03:00:00",
    "issued_utc": "1800",
    "issued_day": 4,
    "base_group": {
      "dir": "080",
      "spd": "05",
      "gust": "10",
      "vis": "9999",
      "wx": "",
      "cloud": "FEW180",
      "rain": 0.0,
      "rain_mmh": 0.0,
      "trends": [],
      "badge": "MME 1800Z Shift",
      "metrics": {
        "leader_rmse": "N/A",
        "leader_strat": "N/A"
      }
    },
    "taf_text": "FTID40 WAWP 041800\nTAF WAWP 041800Z 0419/0519 08005KT CAVOK=",
    "narration": "Secara umum cuaca berawan sebagian dengan jarak pandang baik. Angin dominan bertiup dengan kecepatan ringan hingga sedang (5 KT).",
    "warnings": []
  }
}