{
  "2300": {
    "valid_start": "2026-07-07 08:00:00",
    "issued_utc": "2300",
    "issued_day": 6,
    "base_group": {
      "dir": "110",
      "spd": "05",
      "gust": "13",
      "vis": "9999",
      "wx": "",
      "cloud": "FEW012",
      "rain": 0.0,
      "rain_mmh": 0.0,
      "trends": [],
      "badge": "MME 2300Z Shift",
      "metrics": {
        "leader_rmse": "N/A",
        "leader_strat": "N/A"
      }
    },
    "taf_text": "FTID40 WAWP 062300\nTAF WAWP 062300Z 0700/0800 11005KT 9999 FEW012=",
    "narration": "Secara umum cuaca berawan sebagian dengan jarak pandang baik. Angin dominan bertiup dengan kecepatan ringan hingga sedang (5 KT).",
    "warnings": [],
    "event_skill_context": {
      "Rainfall": {
        "applied": false,
        "reason": "event-window weighting pending because no forecast-observation pairs were available",
        "weighted_score": 0.0,
        "weighted_far": null,
        "strength": 0.0,
        "top_models": [],
        "min_events": 10,
        "threshold": null
      },
      "Wind Gust": {
        "applied": false,
        "reason": "event-window weighting pending because no forecast-observation pairs were available",
        "weighted_score": 0.0,
        "weighted_far": null,
        "strength": 0.0,
        "top_models": [],
        "min_events": 10,
        "threshold": null
      }
    }
  },
  "0500": {
    "valid_start": "2026-07-07 14:00:00",
    "issued_utc": "0500",
    "issued_day": 7,
    "base_group": {
      "dir": "190",
      "spd": "04",
      "gust": "11",
      "vis": "9999",
      "wx": "",
      "cloud": "SCT041",
      "rain": 0.0,
      "rain_mmh": 0.0,
      "trends": [],
      "badge": "MME 0500Z Shift",
      "metrics": {
        "leader_rmse": "N/A",
        "leader_strat": "N/A"
      }
    },
    "taf_text": "FTID40 WAWP 070500\nTAF WAWP 070500Z 0706/0806 19004KT 9999 SCT041=",
    "narration": "Secara umum cuaca berawan sebagian dengan jarak pandang baik. Angin dominan bertiup dengan kecepatan ringan hingga sedang (4 KT).",
    "warnings": [],
    "event_skill_context": {
      "Rainfall": {
        "applied": false,
        "reason": "event-window weighting pending because no forecast-observation pairs were available",
        "weighted_score": 0.0,
        "weighted_far": null,
        "strength": 0.0,
        "top_models": [],
        "min_events": 10,
        "threshold": null
      },
      "Wind Gust": {
        "applied": false,
        "reason": "event-window weighting pending because no forecast-observation pairs were available",
        "weighted_score": 0.0,
        "weighted_far": null,
        "strength": 0.0,
        "top_models": [],
        "min_events": 10,
        "threshold": null
      }
    }
  },
  "1100": {
    "valid_start": "2026-07-06 20:00:00",
    "issued_utc": "1100",
    "issued_day": 6,
    "base_group": {
      "dir": "100",
      "spd": "04",
      "gust": "09",
      "vis": "9999",
      "wx": "",
      "cloud": "FEW018",
      "rain": 0.0,
      "rain_mmh": 0.0,
      "trends": [],
      "badge": "MME 1100Z Shift",
      "metrics": {
        "leader_rmse": "N/A",
        "leader_strat": "N/A"
      }
    },
    "taf_text": "FTID40 WAWP 061100\nTAF WAWP 061100Z 0612/0712 10004KT 9999 FEW018=",
    "narration": "Secara umum cuaca berawan sebagian dengan jarak pandang baik. Angin dominan bertiup dengan kecepatan ringan hingga sedang (4 KT).",
    "warnings": [],
    "event_skill_context": {
      "Rainfall": {
        "applied": false,
        "reason": "event-window weighting pending because no forecast-observation pairs were available",
        "weighted_score": 0.0,
        "weighted_far": null,
        "strength": 0.0,
        "top_models": [],
        "min_events": 10,
        "threshold": null
      },
      "Wind Gust": {
        "applied": false,
        "reason": "event-window weighting pending because no forecast-observation pairs were available",
        "weighted_score": 0.0,
        "weighted_far": null,
        "strength": 0.0,
        "top_models": [],
        "min_events": 10,
        "threshold": null
      }
    }
  },
  "1700": {
    "valid_start": "2026-07-07 02:00:00",
    "issued_utc": "1700",
    "issued_day": 6,
    "base_group": {
      "dir": "110",
      "spd": "04",
      "gust": "11",
      "vis": "9999",
      "wx": "",
      "cloud": "SCT001",
      "rain": 0.0,
      "rain_mmh": 0.0,
      "trends": [],
      "badge": "MME 1700Z Shift",
      "metrics": {
        "leader_rmse": "N/A",
        "leader_strat": "N/A"
      }
    },
    "taf_text": "FTID40 WAWP 061700\nTAF WAWP 061700Z 0618/0718 11004KT 9999 SCT001=",
    "narration": "Secara umum cuaca berawan sebagian dengan jarak pandang baik. Angin dominan bertiup dengan kecepatan ringan hingga sedang (4 KT).",
    "warnings": [],
    "event_skill_context": {
      "Rainfall": {
        "applied": false,
        "reason": "event-window weighting pending because no forecast-observation pairs were available",
        "weighted_score": 0.0,
        "weighted_far": null,
        "strength": 0.0,
        "top_models": [],
        "min_events": 10,
        "threshold": null
      },
      "Wind Gust": {
        "applied": false,
        "reason": "event-window weighting pending because no forecast-observation pairs were available",
        "weighted_score": 0.0,
        "weighted_far": null,
        "strength": 0.0,
        "top_models": [],
        "min_events": 10,
        "threshold": null
      }
    }
  },
  "default": {
    "valid_start": "2026-07-06 18:00:00",
    "issued_utc": "0900",
    "issued_day": 6,
    "base_group": {
      "dir": "020",
      "spd": "01",
      "gust": "04",
      "vis": "8000",
      "wx": "",
      "cloud": "FEW035",
      "rain": 0.0,
      "rain_mmh": 0.0,
      "trends": [],
      "badge": "MME 0900Z Shift",
      "metrics": {
        "leader_rmse": "N/A",
        "leader_strat": "N/A"
      }
    },
    "taf_text": "FTID40 WAWP 060900\nTAF WAWP 060900Z 0610/0710 02001KT 8000 FEW035=",
    "narration": "Secara umum cuaca berawan sebagian dengan jarak pandang sedang. Angin dominan bertiup dengan kecepatan ringan hingga sedang (1 KT).",
    "warnings": [],
    "event_skill_context": {
      "Rainfall": {
        "applied": false,
        "reason": "event-window weighting pending because no forecast-observation pairs were available",
        "weighted_score": 0.0,
        "weighted_far": null,
        "strength": 0.0,
        "top_models": [],
        "min_events": 10,
        "threshold": null
      },
      "Wind Gust": {
        "applied": false,
        "reason": "event-window weighting pending because no forecast-observation pairs were available",
        "weighted_score": 0.0,
        "weighted_far": null,
        "strength": 0.0,
        "top_models": [],
        "min_events": 10,
        "threshold": null
      }
    }
  }
}