{
  "2300": {
    "valid_start": "2026-07-10 08:00:00",
    "issued_utc": "2300",
    "issued_day": 9,
    "base_group": {
      "dir": "120",
      "spd": "03",
      "gust": "10",
      "vis": "9999",
      "wx": "",
      "cloud": "FEW010",
      "rain": 0.013504594126547082,
      "rain_mmh": 0.013504594126547082,
      "trends": [],
      "badge": "MME 2300Z Shift",
      "metrics": {
        "leader_rmse": "N/A",
        "leader_strat": "N/A"
      }
    },
    "taf_text": "FTID40 WAWP 092300\nTAF WAWP 092300Z 1000/1100 12003KT 9999 FEW010=",
    "narration": "Secara umum cuaca berawan sebagian dengan jarak pandang baik. Angin dominan bertiup dengan kecepatan ringan hingga sedang (3 KT).",
    "warnings": [],
    "event_skill_context": {
      "Rainfall": {
        "applied": false,
        "reason": "event-window weighting pending because no forecast-observation pairs were available",
        "weighted_score": 0.0,
        "weighted_far": null,
        "strength": 0.0,
        "top_models": [],
        "min_events": 10,
        "threshold": null
      },
      "Wind Gust": {
        "applied": false,
        "reason": "event-window weighting pending because no forecast-observation pairs were available",
        "weighted_score": 0.0,
        "weighted_far": null,
        "strength": 0.0,
        "top_models": [],
        "min_events": 10,
        "threshold": null
      }
    }
  },
  "0500": {
    "valid_start": "2026-07-10 14:00:00",
    "issued_utc": "0500",
    "issued_day": 10,
    "base_group": {
      "dir": "170",
      "spd": "03",
      "gust": "09",
      "vis": "9999",
      "wx": "",
      "cloud": "SCT041",
      "rain": 0.0,
      "rain_mmh": 0.0,
      "trends": [],
      "badge": "MME 0500Z Shift",
      "metrics": {
        "leader_rmse": "N/A",
        "leader_strat": "N/A"
      }
    },
    "taf_text": "FTID40 WAWP 100500\nTAF WAWP 100500Z 1006/1106 17003KT 9999 SCT041=",
    "narration": "Secara umum cuaca berawan sebagian dengan jarak pandang baik. Angin dominan bertiup dengan kecepatan ringan hingga sedang (3 KT).",
    "warnings": [],
    "event_skill_context": {
      "Rainfall": {
        "applied": false,
        "reason": "event-window weighting pending because no forecast-observation pairs were available",
        "weighted_score": 0.0,
        "weighted_far": null,
        "strength": 0.0,
        "top_models": [],
        "min_events": 10,
        "threshold": null
      },
      "Wind Gust": {
        "applied": false,
        "reason": "event-window weighting pending because no forecast-observation pairs were available",
        "weighted_score": 0.0,
        "weighted_far": null,
        "strength": 0.0,
        "top_models": [],
        "min_events": 10,
        "threshold": null
      }
    }
  },
  "1100": {
    "valid_start": "2026-07-09 20:00:00",
    "issued_utc": "1100",
    "issued_day": 9,
    "base_group": {
      "dir": "120",
      "spd": "03",
      "gust": "07",
      "vis": "9999",
      "wx": "",
      "cloud": "BKN012",
      "rain": 0.013504594126547082,
      "rain_mmh": 0.013504594126547082,
      "trends": [],
      "badge": "MME 1100Z Shift",
      "metrics": {
        "leader_rmse": "N/A",
        "leader_strat": "N/A"
      }
    },
    "taf_text": "FTID40 WAWP 091100\nTAF WAWP 091100Z 0912/1012 12003KT 9999 BKN012=",
    "narration": "Secara umum cuaca berawan tebal dengan jarak pandang baik. Angin dominan bertiup dengan kecepatan ringan hingga sedang (3 KT).",
    "warnings": [],
    "event_skill_context": {
      "Rainfall": {
        "applied": false,
        "reason": "event-window weighting pending because no forecast-observation pairs were available",
        "weighted_score": 0.0,
        "weighted_far": null,
        "strength": 0.0,
        "top_models": [],
        "min_events": 10,
        "threshold": null
      },
      "Wind Gust": {
        "applied": false,
        "reason": "event-window weighting pending because no forecast-observation pairs were available",
        "weighted_score": 0.0,
        "weighted_far": null,
        "strength": 0.0,
        "top_models": [],
        "min_events": 10,
        "threshold": null
      }
    }
  },
  "1700": {
    "valid_start": "2026-07-10 02:00:00",
    "issued_utc": "1700",
    "issued_day": 9,
    "base_group": {
      "dir": "110",
      "spd": "02",
      "gust": "07",
      "vis": "9999",
      "wx": "",
      "cloud": "FEW010",
      "rain": 0.042216297607113325,
      "rain_mmh": 0.042216297607113325,
      "trends": [],
      "badge": "MME 1700Z Shift",
      "metrics": {
        "leader_rmse": "N/A",
        "leader_strat": "N/A"
      }
    },
    "taf_text": "FTID40 WAWP 091700\nTAF WAWP 091700Z 0918/1018 11002KT 9999 FEW010=",
    "narration": "Secara umum cuaca berawan sebagian dengan jarak pandang baik. Angin dominan bertiup dengan kecepatan ringan hingga sedang (2 KT).",
    "warnings": [],
    "event_skill_context": {
      "Rainfall": {
        "applied": false,
        "reason": "event-window weighting pending because no forecast-observation pairs were available",
        "weighted_score": 0.0,
        "weighted_far": null,
        "strength": 0.0,
        "top_models": [],
        "min_events": 10,
        "threshold": null
      },
      "Wind Gust": {
        "applied": false,
        "reason": "event-window weighting pending because no forecast-observation pairs were available",
        "weighted_score": 0.0,
        "weighted_far": null,
        "strength": 0.0,
        "top_models": [],
        "min_events": 10,
        "threshold": null
      }
    }
  },
  "default": {
    "valid_start": "2026-07-09 18:00:00",
    "issued_utc": "0900",
    "issued_day": 9,
    "base_group": {
      "dir": "170",
      "spd": "02",
      "gust": "08",
      "vis": "9999",
      "wx": "",
      "cloud": "BKN021",
      "rain": 0.013504594126547082,
      "rain_mmh": 0.013504594126547082,
      "trends": [
        {
          "type": "TEMPO",
          "time_str": "0912/0915",
          "time_h_start": 12,
          "time_h_end": 15,
          "wx": "",
          "vis": "",
          "cloud": "BKN012",
          "dir": "",
          "spd": "",
          "gust": "",
          "rain_mmh": 0.013504594126547082
        }
      ],
      "badge": "MME 0900Z Shift",
      "metrics": {
        "leader_rmse": "N/A",
        "leader_strat": "N/A"
      }
    },
    "taf_text": "FTID40 WAWP 090900\nTAF WAWP 090900Z 0910/1010 17002KT 9999 BKN021\nTEMPO 0912/0915 BKN012=",
    "narration": "Secara umum cuaca berawan tebal dengan jarak pandang baik. Angin dominan bertiup dengan kecepatan ringan hingga sedang (2 KT).",
    "warnings": [],
    "event_skill_context": {
      "Rainfall": {
        "applied": false,
        "reason": "event-window weighting pending because no forecast-observation pairs were available",
        "weighted_score": 0.0,
        "weighted_far": null,
        "strength": 0.0,
        "top_models": [],
        "min_events": 10,
        "threshold": null
      },
      "Wind Gust": {
        "applied": false,
        "reason": "event-window weighting pending because no forecast-observation pairs were available",
        "weighted_score": 0.0,
        "weighted_far": null,
        "strength": 0.0,
        "top_models": [],
        "min_events": 10,
        "threshold": null
      }
    }
  }
}