{
  "2300": {
    "valid_start": "2026-06-29 08:00:00",
    "issued_utc": "2300",
    "issued_day": 28,
    "base_group": {
      "dir": "080",
      "spd": "04",
      "gust": "10",
      "vis": "9999",
      "wx": "",
      "cloud": "FEW015",
      "trends": [],
      "badge": "MME 2300Z Shift",
      "metrics": {
        "leader_rmse": "N/A",
        "leader_strat": "N/A"
      }
    },
    "taf_text": "FTID40 WAWP 282300\nTAF WAWP 282300Z 2900/3000 08004KT 9999 FEW015=",
    "warnings": []
  },
  "0500": {
    "valid_start": "2026-06-29 14:00:00",
    "issued_utc": "0500",
    "issued_day": 29,
    "base_group": {
      "dir": "090",
      "spd": "02",
      "gust": "09",
      "vis": "4000",
      "wx": "",
      "cloud": "FEW039",
      "trends": [],
      "badge": "MME 0500Z Shift",
      "metrics": {
        "leader_rmse": "N/A",
        "leader_strat": "N/A"
      }
    },
    "taf_text": "FTID40 WAWP 290500\nTAF WAWP 290500Z 2906/3006 09002KT 4000 FEW039=",
    "warnings": []
  },
  "1100": {
    "valid_start": "2026-06-29 20:00:00",
    "issued_utc": "1100",
    "issued_day": 29,
    "base_group": {
      "dir": "090",
      "spd": "05",
      "gust": "09",
      "vis": "9999",
      "wx": "",
      "cloud": "FEW016",
      "trends": [],
      "badge": "MME 1100Z Shift",
      "metrics": {
        "leader_rmse": "N/A",
        "leader_strat": "N/A"
      }
    },
    "taf_text": "FTID40 WAWP 291100\nTAF WAWP 291100Z 2912/3012 09005KT 9999 FEW018=",
    "warnings": []
  },
  "1700": {
    "valid_start": "2026-06-30 02:00:00",
    "issued_utc": "1700",
    "issued_day": 29,
    "base_group": {
      "dir": "100",
      "spd": "06",
      "gust": "10",
      "vis": "9999",
      "wx": "",
      "cloud": "FEW013",
      "trends": [],
      "badge": "MME 1700Z Shift",
      "metrics": {
        "leader_rmse": "N/A",
        "leader_strat": "N/A"
      }
    },
    "taf_text": "FTID40 WAWP 291700\nTAF WAWP 291700Z 2918/3018 10006KT 9999 FEW013=",
    "warnings": []
  },
  "default": {
    "valid_start": "2026-06-29 04:00:00",
    "issued_utc": "1900",
    "issued_day": 28,
    "base_group": {
      "dir": "090",
      "spd": "04",
      "gust": "08",
      "vis": "9999",
      "wx": "",
      "cloud": "FEW006",
      "trends": [],
      "badge": "MME 1900Z Shift",
      "metrics": {
        "leader_rmse": "N/A",
        "leader_strat": "N/A"
      }
    },
    "taf_text": "FTID40 WAWP 281900\nTAF WAWP 281900Z 2820/2920 09004KT 9999 FEW006=",
    "warnings": []
  }
}