{
  "2300": {
    "valid_start": "2026-07-08 08:00:00",
    "issued_utc": "2300",
    "issued_day": 7,
    "base_group": {
      "dir": "110",
      "spd": "03",
      "gust": "10",
      "vis": "9999",
      "wx": "",
      "cloud": "FEW011",
      "rain": 0.0,
      "rain_mmh": 0.0,
      "trends": [],
      "badge": "MME 2300Z Shift",
      "metrics": {
        "leader_rmse": "N/A",
        "leader_strat": "N/A"
      }
    },
    "taf_text": "FTID40 WAWP 072300\nTAF WAWP 072300Z 0800/0900 11003KT 9999 FEW011=",
    "narration": "Secara umum cuaca berawan sebagian dengan jarak pandang baik. Angin dominan bertiup dengan kecepatan ringan hingga sedang (3 KT).",
    "warnings": [],
    "event_skill_context": {
      "Rainfall": {
        "applied": false,
        "reason": "event-window weighting pending because no forecast-observation pairs were available",
        "weighted_score": 0.0,
        "weighted_far": null,
        "strength": 0.0,
        "top_models": [],
        "min_events": 10,
        "threshold": null
      },
      "Wind Gust": {
        "applied": false,
        "reason": "event-window weighting pending because no forecast-observation pairs were available",
        "weighted_score": 0.0,
        "weighted_far": null,
        "strength": 0.0,
        "top_models": [],
        "min_events": 10,
        "threshold": null
      }
    }
  },
  "0500": {
    "valid_start": "2026-07-08 14:00:00",
    "issued_utc": "0500",
    "issued_day": 8,
    "base_group": {
      "dir": "220",
      "spd": "03",
      "gust": "10",
      "vis": "9999",
      "wx": "",
      "cloud": "SCT037",
      "rain": 0.012849411469699482,
      "rain_mmh": 0.012849411469699482,
      "trends": [],
      "badge": "MME 0500Z Shift",
      "metrics": {
        "leader_rmse": "N/A",
        "leader_strat": "N/A"
      }
    },
    "taf_text": "FTID40 WAWP 080500\nTAF WAWP 080500Z 0806/0906 22003KT 9999 SCT037=",
    "narration": "Secara umum cuaca berawan sebagian dengan jarak pandang baik. Angin dominan bertiup dengan kecepatan ringan hingga sedang (3 KT).",
    "warnings": [],
    "event_skill_context": {
      "Rainfall": {
        "applied": false,
        "reason": "event-window weighting pending because no forecast-observation pairs were available",
        "weighted_score": 0.0,
        "weighted_far": null,
        "strength": 0.0,
        "top_models": [],
        "min_events": 10,
        "threshold": null
      },
      "Wind Gust": {
        "applied": false,
        "reason": "event-window weighting pending because no forecast-observation pairs were available",
        "weighted_score": 0.0,
        "weighted_far": null,
        "strength": 0.0,
        "top_models": [],
        "min_events": 10,
        "threshold": null
      }
    }
  },
  "1100": {
    "valid_start": "2026-07-08 20:00:00",
    "issued_utc": "1100",
    "issued_day": 8,
    "base_group": {
      "dir": "110",
      "spd": "03",
      "gust": "10",
      "vis": "9999",
      "wx": "",
      "cloud": "SCT008",
      "rain": 0.11956973238436039,
      "rain_mmh": 0.11956973238436039,
      "trends": [],
      "badge": "MME 1100Z Shift",
      "metrics": {
        "leader_rmse": "N/A",
        "leader_strat": "N/A"
      }
    },
    "taf_text": "FTID40 WAWP 081100\nTAF WAWP 081100Z 0812/0912 11003KT 9999 SCT008=",
    "narration": "Secara umum cuaca berawan sebagian dengan jarak pandang baik. Angin dominan bertiup dengan kecepatan ringan hingga sedang (3 KT).",
    "warnings": [],
    "event_skill_context": {
      "Rainfall": {
        "applied": false,
        "reason": "event-window weighting pending because no forecast-observation pairs were available",
        "weighted_score": 0.0,
        "weighted_far": null,
        "strength": 0.0,
        "top_models": [],
        "min_events": 10,
        "threshold": null
      },
      "Wind Gust": {
        "applied": false,
        "reason": "event-window weighting pending because no forecast-observation pairs were available",
        "weighted_score": 0.0,
        "weighted_far": null,
        "strength": 0.0,
        "top_models": [],
        "min_events": 10,
        "threshold": null
      }
    }
  },
  "1700": {
    "valid_start": "2026-07-08 02:00:00",
    "issued_utc": "1700",
    "issued_day": 7,
    "base_group": {
      "dir": "110",
      "spd": "03",
      "gust": "09",
      "vis": "9999",
      "wx": "",
      "cloud": "FEW010",
      "rain": 0.0,
      "rain_mmh": 0.0,
      "trends": [],
      "badge": "MME 1700Z Shift",
      "metrics": {
        "leader_rmse": "N/A",
        "leader_strat": "N/A"
      }
    },
    "taf_text": "FTID40 WAWP 071700\nTAF WAWP 071700Z 0718/0818 11003KT 9999 FEW010=",
    "narration": "Secara umum cuaca berawan sebagian dengan jarak pandang baik. Angin dominan bertiup dengan kecepatan ringan hingga sedang (3 KT).",
    "warnings": [],
    "event_skill_context": {
      "Rainfall": {
        "applied": false,
        "reason": "event-window weighting pending because no forecast-observation pairs were available",
        "weighted_score": 0.0,
        "weighted_far": null,
        "strength": 0.0,
        "top_models": [],
        "min_events": 10,
        "threshold": null
      },
      "Wind Gust": {
        "applied": false,
        "reason": "event-window weighting pending because no forecast-observation pairs were available",
        "weighted_score": 0.0,
        "weighted_far": null,
        "strength": 0.0,
        "top_models": [],
        "min_events": 10,
        "threshold": null
      }
    }
  },
  "default": {
    "valid_start": "2026-07-07 23:00:00",
    "issued_utc": "1400",
    "issued_day": 7,
    "base_group": {
      "dir": "120",
      "spd": "03",
      "gust": "08",
      "vis": "8000",
      "wx": "",
      "cloud": "FEW003",
      "rain": 0.015503918788461642,
      "rain_mmh": 0.015503918788461642,
      "trends": [],
      "badge": "MME 1400Z Shift",
      "metrics": {
        "leader_rmse": "N/A",
        "leader_strat": "N/A"
      }
    },
    "taf_text": "FTID40 WAWP 071400\nTAF WAWP 071400Z 0715/0815 12003KT 8000 FEW003=",
    "narration": "Secara umum cuaca berawan sebagian dengan jarak pandang sedang. Angin dominan bertiup dengan kecepatan ringan hingga sedang (3 KT).",
    "warnings": [],
    "event_skill_context": {
      "Rainfall": {
        "applied": false,
        "reason": "event-window weighting pending because no forecast-observation pairs were available",
        "weighted_score": 0.0,
        "weighted_far": null,
        "strength": 0.0,
        "top_models": [],
        "min_events": 10,
        "threshold": null
      },
      "Wind Gust": {
        "applied": false,
        "reason": "event-window weighting pending because no forecast-observation pairs were available",
        "weighted_score": 0.0,
        "weighted_far": null,
        "strength": 0.0,
        "top_models": [],
        "min_events": 10,
        "threshold": null
      }
    }
  }
}