{
  "2300": {
    "valid_start": "2026-06-30 08:00:00",
    "issued_utc": "2300",
    "issued_day": 29,
    "base_group": {
      "dir": "090",
      "spd": "06",
      "gust": "10",
      "vis": "9999",
      "wx": "",
      "cloud": "FEW018",
      "trends": [],
      "badge": "MME 2300Z Shift",
      "metrics": {
        "leader_rmse": "N/A",
        "leader_strat": "N/A"
      }
    },
    "taf_text": "FTID40 WAWP 292300\nTAF WAWP 292300Z 3000/0100 09006KT 9999 FEW018=",
    "warnings": []
  },
  "0500": {
    "valid_start": "2026-06-30 14:00:00",
    "issued_utc": "0500",
    "issued_day": 30,
    "base_group": {
      "dir": "150",
      "spd": "05",
      "gust": "10",
      "vis": "7000",
      "wx": "",
      "cloud": "SCT037",
      "trends": [],
      "badge": "MME 0500Z Shift",
      "metrics": {
        "leader_rmse": "N/A",
        "leader_strat": "N/A"
      }
    },
    "taf_text": "FTID40 WAWP 300500\nTAF WAWP 300500Z 3006/0106 15005KT 7000 SCT037=",
    "warnings": []
  },
  "1100": {
    "valid_start": "2026-06-29 20:00:00",
    "issued_utc": "1100",
    "issued_day": 29,
    "base_group": {
      "dir": "090",
      "spd": "06",
      "gust": "10",
      "vis": "9999",
      "wx": "",
      "cloud": "FEW018",
      "trends": [],
      "badge": "MME 1100Z Shift",
      "metrics": {
        "leader_rmse": "N/A",
        "leader_strat": "N/A"
      }
    },
    "taf_text": "FTID40 WAWP 291100\nTAF WAWP 291100Z 2912/3012 09006KT 9999 FEW018=",
    "warnings": []
  },
  "1700": {
    "valid_start": "2026-06-30 02:00:00",
    "issued_utc": "1700",
    "issued_day": 29,
    "base_group": {
      "dir": "100",
      "spd": "06",
      "gust": "10",
      "vis": "9999",
      "wx": "",
      "cloud": "FEW013",
      "trends": [],
      "badge": "MME 1700Z Shift",
      "metrics": {
        "leader_rmse": "N/A",
        "leader_strat": "N/A"
      }
    },
    "taf_text": "FTID40 WAWP 291700\nTAF WAWP 291700Z 2918/3018 10006KT 9999 FEW013=",
    "warnings": []
  },
  "default": {
    "valid_start": "2026-06-29 16:00:00",
    "issued_utc": "0700",
    "issued_day": 29,
    "base_group": {
      "dir": "140",
      "spd": "03",
      "gust": "05",
      "vis": "9999",
      "wx": "",
      "cloud": "FEW033",
      "trends": [],
      "badge": "MME 0700Z Shift",
      "metrics": {
        "leader_rmse": "N/A",
        "leader_strat": "N/A"
      }
    },
    "taf_text": "FTID40 WAWP 290700\nTAF WAWP 290700Z 2908/3008 14003KT 9999 FEW033=",
    "warnings": []
  }
}