{
  "valid_start": "2026-07-14 08:00:00",
  "issued_utc": "0700",
  "issued_day": 14,
  "base_group": {
    "dir": "091",
    "spd": "08",
    "vis": "9999",
    "wx": "",
    "cloud": "BKN020",
    "trends": [],
    "badge": "MME Consensus",
    "metrics": {
      "leader_rmse": "N/A",
      "leader_strat": "N/A"
    }
  },
  "taf_text": "FTID40 WAWP 140700Z\nTAF WAWP 140700Z 1408/1508 09108KT 9999 BKN020=",
  "warnings": []
}