{
  "2300": {
    "valid_start": "2026-07-07 08:00:00",
    "issued_utc": "2300",
    "issued_day": 6,
    "base_group": {
      "dir": "110",
      "spd": "04",
      "gust": "13",
      "vis": "9999",
      "wx": "",
      "cloud": "FEW012",
      "rain": 0.0,
      "rain_mmh": 0.0,
      "trends": [],
      "badge": "MME 2300Z Shift",
      "metrics": {
        "leader_rmse": "N/A",
        "leader_strat": "N/A"
      }
    },
    "taf_text": "FTID40 WAWP 062300\nTAF WAWP 062300Z 0700/0800 11004KT 9999 FEW012=",
    "narration": "Secara umum cuaca berawan sebagian dengan jarak pandang baik. Angin dominan bertiup dengan kecepatan ringan hingga sedang (4 KT).",
    "warnings": []
  },
  "0500": {
    "valid_start": "2026-07-07 14:00:00",
    "issued_utc": "0500",
    "issued_day": 7,
    "base_group": {
      "dir": "190",
      "spd": "04",
      "gust": "10",
      "vis": "9999",
      "wx": "",
      "cloud": "SCT041",
      "rain": 0.0,
      "rain_mmh": 0.0,
      "trends": [],
      "badge": "MME 0500Z Shift",
      "metrics": {
        "leader_rmse": "N/A",
        "leader_strat": "N/A"
      }
    },
    "taf_text": "FTID40 WAWP 070500\nTAF WAWP 070500Z 0706/0806 19004KT 9999 SCT041=",
    "narration": "Secara umum cuaca berawan sebagian dengan jarak pandang baik. Angin dominan bertiup dengan kecepatan ringan hingga sedang (4 KT).",
    "warnings": []
  },
  "1100": {
    "valid_start": "2026-07-06 20:00:00",
    "issued_utc": "1100",
    "issued_day": 6,
    "base_group": {
      "dir": "100",
      "spd": "03",
      "gust": "09",
      "vis": "9999",
      "wx": "",
      "cloud": "FEW019",
      "rain": 0.0,
      "rain_mmh": 0.0,
      "trends": [],
      "badge": "MME 1100Z Shift",
      "metrics": {
        "leader_rmse": "N/A",
        "leader_strat": "N/A"
      }
    },
    "taf_text": "FTID40 WAWP 061100\nTAF WAWP 061100Z 0612/0712 10003KT 9999 FEW019=",
    "narration": "Secara umum cuaca berawan sebagian dengan jarak pandang baik. Angin dominan bertiup dengan kecepatan ringan hingga sedang (3 KT).",
    "warnings": []
  },
  "1700": {
    "valid_start": "2026-07-07 02:00:00",
    "issued_utc": "1700",
    "issued_day": 6,
    "base_group": {
      "dir": "110",
      "spd": "04",
      "gust": "11",
      "vis": "9999",
      "wx": "",
      "cloud": "SCT001",
      "rain": 0.0,
      "rain_mmh": 0.0,
      "trends": [],
      "badge": "MME 1700Z Shift",
      "metrics": {
        "leader_rmse": "N/A",
        "leader_strat": "N/A"
      }
    },
    "taf_text": "FTID40 WAWP 061700\nTAF WAWP 061700Z 0618/0718 11004KT 9999 SCT001=",
    "narration": "Secara umum cuaca berawan sebagian dengan jarak pandang baik. Angin dominan bertiup dengan kecepatan ringan hingga sedang (4 KT).",
    "warnings": []
  },
  "default": {
    "valid_start": "2026-07-06 17:00:00",
    "issued_utc": "0800",
    "issued_day": 6,
    "base_group": {
      "dir": "130",
      "spd": "02",
      "gust": "11",
      "vis": "9999",
      "wx": "",
      "cloud": "FEW038",
      "rain": 0.0,
      "rain_mmh": 0.0,
      "trends": [],
      "badge": "MME 0800Z Shift",
      "metrics": {
        "leader_rmse": "N/A",
        "leader_strat": "N/A"
      }
    },
    "taf_text": "FTID40 WAWP 060800\nTAF WAWP 060800Z 0609/0709 13002KT 9999 FEW038=",
    "narration": "Secara umum cuaca berawan sebagian dengan jarak pandang baik. Angin dominan bertiup dengan kecepatan ringan hingga sedang (2 KT).",
    "warnings": []
  }
}