{
  "2300": {
    "valid_start": "2026-07-03 08:00:00",
    "issued_utc": "2300",
    "issued_day": 2,
    "base_group": {
      "dir": "070",
      "spd": "04",
      "gust": "07",
      "vis": "9999",
      "wx": "",
      "cloud": "NSC",
      "rain": 0.0,
      "trends": [],
      "badge": "MME 2300Z Shift",
      "metrics": {
        "leader_rmse": "N/A",
        "leader_strat": "N/A"
      }
    },
    "taf_text": "FTID40 WAWP 022300\nTAF WAWP 022300Z 0300/0400 07004KT CAVOK=",
    "narration": "Secara umum cuaca berawan tebal dengan jarak pandang baik. Angin dominan bertiup dengan kecepatan ringan hingga sedang (4 KT).",
    "warnings": []
  },
  "0500": {
    "valid_start": "2026-07-02 14:00:00",
    "issued_utc": "0500",
    "issued_day": 2,
    "base_group": {
      "dir": "220",
      "spd": "06",
      "gust": "10",
      "vis": "9999",
      "wx": "",
      "cloud": "FEW037",
      "rain": 0.0,
      "trends": [],
      "badge": "MME 0500Z Shift",
      "metrics": {
        "leader_rmse": "N/A",
        "leader_strat": "N/A"
      }
    },
    "taf_text": "FTID40 WAWP 020500\nTAF WAWP 020500Z 0206/0306 22006KT 9999 FEW037=",
    "narration": "Secara umum cuaca berawan sebagian dengan jarak pandang baik. Angin dominan bertiup dengan kecepatan ringan hingga sedang (6 KT).",
    "warnings": []
  },
  "1100": {
    "valid_start": "2026-07-02 20:00:00",
    "issued_utc": "1100",
    "issued_day": 2,
    "base_group": {
      "dir": "080",
      "spd": "05",
      "gust": "07",
      "vis": "9999",
      "wx": "",
      "cloud": "FEW017",
      "rain": 0.0,
      "trends": [],
      "badge": "MME 1100Z Shift",
      "metrics": {
        "leader_rmse": "N/A",
        "leader_strat": "N/A"
      }
    },
    "taf_text": "FTID40 WAWP 021100\nTAF WAWP 021100Z 0212/0312 08005KT 9999 FEW017=",
    "narration": "Secara umum cuaca berawan sebagian dengan jarak pandang baik. Angin dominan bertiup dengan kecepatan ringan hingga sedang (5 KT).",
    "warnings": []
  },
  "1700": {
    "valid_start": "2026-07-03 02:00:00",
    "issued_utc": "1700",
    "issued_day": 2,
    "base_group": {
      "dir": "100",
      "spd": "06",
      "gust": "09",
      "vis": "9999",
      "wx": "",
      "cloud": "NSC",
      "rain": 0.0,
      "trends": [],
      "badge": "MME 1700Z Shift",
      "metrics": {
        "leader_rmse": "N/A",
        "leader_strat": "N/A"
      }
    },
    "taf_text": "FTID40 WAWP 021700\nTAF WAWP 021700Z 0218/0318 10006KT CAVOK=",
    "narration": "Secara umum cuaca berawan tebal dengan jarak pandang baik. Angin dominan bertiup dengan kecepatan ringan hingga sedang (6 KT).",
    "warnings": []
  },
  "default": {
    "valid_start": "2026-07-02 10:00:00",
    "issued_utc": "0100",
    "issued_day": 2,
    "base_group": {
      "dir": "060",
      "spd": "04",
      "gust": "08",
      "vis": "9999",
      "wx": "",
      "cloud": "FEW032",
      "rain": 0.0,
      "trends": [],
      "badge": "MME 0100Z Shift",
      "metrics": {
        "leader_rmse": "N/A",
        "leader_strat": "N/A"
      }
    },
    "taf_text": "FTID40 WAWP 020100\nTAF WAWP 020100Z 0202/0302 06004KT 9999 FEW032=",
    "narration": "Secara umum cuaca berawan sebagian dengan jarak pandang baik. Angin dominan bertiup dengan kecepatan ringan hingga sedang (4 KT).",
    "warnings": []
  }
}