{
  "2300": {
    "valid_start": "2026-06-29 08:00:00",
    "issued_utc": "2300",
    "issued_day": 29,
    "base_group": {
      "dir": "100",
      "spd": "05",
      "gust": "10",
      "vis": "9999",
      "wx": "",
      "cloud": "BKN017",
      "trends": [],
      "badge": "MME 2300Z Shift",
      "metrics": {
        "leader_rmse": "N/A",
        "leader_strat": "N/A"
      }
    },
    "taf_text": "FTID40 WAWP 292300Z\nTAF WAWP 292300Z 2900/3000 10005KT 9999 BKN017=",
    "warnings": []
  },
  "0500": {
    "valid_start": "2026-06-29 14:00:00",
    "issued_utc": "0500",
    "issued_day": 28,
    "base_group": {
      "dir": "170",
      "spd": "05",
      "gust": "10",
      "vis": "7000",
      "wx": "",
      "cloud": "BKN035",
      "trends": [],
      "badge": "MME 0500Z Shift",
      "metrics": {
        "leader_rmse": "N/A",
        "leader_strat": "N/A"
      }
    },
    "taf_text": "FTID40 WAWP 280500Z\nTAF WAWP 280500Z 2906/3006 17005KT 7000 BKN035=",
    "warnings": []
  },
  "1100": {
    "valid_start": "2026-06-28 20:00:00",
    "issued_utc": "1100",
    "issued_day": 27,
    "base_group": {
      "dir": "110",
      "spd": "07",
      "gust": "10",
      "vis": "4300",
      "wx": "",
      "cloud": "BKN018",
      "trends": [],
      "badge": "MME 1100Z Shift",
      "metrics": {
        "leader_rmse": "N/A",
        "leader_strat": "N/A"
      }
    },
    "taf_text": "FTID40 WAWP 271100Z\nTAF WAWP 271100Z 2812/2912 11007KT 4300 BKN018=",
    "warnings": []
  },
  "1700": {
    "valid_start": "2026-06-29 02:00:00",
    "issued_utc": "1700",
    "issued_day": 29,
    "base_group": {
      "dir": "100",
      "spd": "05",
      "gust": "08",
      "vis": "3100",
      "wx": "",
      "cloud": "BKN014",
      "trends": [],
      "badge": "MME 1700Z Shift",
      "metrics": {
        "leader_rmse": "N/A",
        "leader_strat": "N/A"
      }
    },
    "taf_text": "FTID40 WAWP 291700Z\nTAF WAWP 291700Z 2818/2918 10005KT 3100 BKN014=",
    "warnings": []
  },
  "default": {
    "valid_start": "2026-06-28 15:00:00",
    "issued_utc": "0600",
    "issued_day": 28,
    "base_group": {
      "dir": "060",
      "spd": "00",
      "gust": "03",
      "vis": "8000",
      "wx": "",
      "cloud": "BKN032",
      "trends": [
        {
          "type": "BECMG",
          "time_str": "2816/2817",
          "time_h_start": 16,
          "time_h_end": 17,
          "wx": "NSW",
          "vis": "9999",
          "cloud": "SCT018",
          "dir": "",
          "spd": ""
        }
      ],
      "badge": "MME 0600Z Shift",
      "metrics": {
        "leader_rmse": "N/A",
        "leader_strat": "N/A"
      }
    },
    "taf_text": "FTID40 WAWP 280600Z\nTAF WAWP 280600Z 2807/2907 00000KT 8000 BKN032\nBECMG 2816/2817 9999 NSW=",
    "warnings": []
  }
}