{
  "2300": {
    "valid_start": "2026-07-11 08:00:00",
    "issued_utc": "2300",
    "issued_day": 10,
    "base_group": {
      "dir": "100",
      "spd": "04",
      "gust": "12",
      "vis": "9999",
      "wx": "",
      "cloud": "FEW012",
      "rain": 0.0,
      "rain_mmh": 0.0,
      "trends": [],
      "badge": "MME 2300Z Shift",
      "metrics": {
        "leader_rmse": "N/A",
        "leader_strat": "N/A"
      }
    },
    "taf_text": "FTID40 WAWP 102300\nTAF WAWP 102300Z 1100/1200 10004KT 9999 FEW012=",
    "narration": "Secara umum cuaca berawan sebagian dengan jarak pandang baik. Angin dominan bertiup dengan kecepatan ringan hingga sedang (4 KT).",
    "warnings": [],
    "event_skill_context": {
      "Rainfall": {
        "applied": false,
        "reason": "event-window weighting pending because no forecast-observation pairs were available",
        "weighted_score": 0.0,
        "weighted_far": null,
        "strength": 0.0,
        "top_models": [],
        "min_events": 10,
        "threshold": null
      },
      "Wind Gust": {
        "applied": false,
        "reason": "event-window weighting pending because no forecast-observation pairs were available",
        "weighted_score": 0.0,
        "weighted_far": null,
        "strength": 0.0,
        "top_models": [],
        "min_events": 10,
        "threshold": null
      }
    }
  },
  "0500": {
    "valid_start": "2026-07-10 14:00:00",
    "issued_utc": "0500",
    "issued_day": 10,
    "base_group": {
      "dir": "210",
      "spd": "02",
      "gust": "08",
      "vis": "9999",
      "wx": "",
      "cloud": "SCT040",
      "rain": 0.0,
      "rain_mmh": 0.0,
      "trends": [],
      "badge": "MME 0500Z Shift",
      "metrics": {
        "leader_rmse": "N/A",
        "leader_strat": "N/A"
      }
    },
    "taf_text": "FTID40 WAWP 100500\nTAF WAWP 100500Z 1006/1106 21002KT 9999 SCT040=",
    "narration": "Secara umum cuaca berawan sebagian dengan jarak pandang baik. Angin dominan bertiup dengan kecepatan ringan hingga sedang (2 KT).",
    "warnings": [],
    "event_skill_context": {
      "Rainfall": {
        "applied": false,
        "reason": "event-window weighting pending because no forecast-observation pairs were available",
        "weighted_score": 0.0,
        "weighted_far": null,
        "strength": 0.0,
        "top_models": [],
        "min_events": 10,
        "threshold": null
      },
      "Wind Gust": {
        "applied": false,
        "reason": "event-window weighting pending because no forecast-observation pairs were available",
        "weighted_score": 0.0,
        "weighted_far": null,
        "strength": 0.0,
        "top_models": [],
        "min_events": 10,
        "threshold": null
      }
    }
  },
  "1100": {
    "valid_start": "2026-07-10 20:00:00",
    "issued_utc": "1100",
    "issued_day": 10,
    "base_group": {
      "dir": "090",
      "spd": "03",
      "gust": "08",
      "vis": "9999",
      "wx": "",
      "cloud": "SCT013",
      "rain": 0.0,
      "rain_mmh": 0.0,
      "trends": [],
      "badge": "MME 1100Z Shift",
      "metrics": {
        "leader_rmse": "N/A",
        "leader_strat": "N/A"
      }
    },
    "taf_text": "FTID40 WAWP 101100\nTAF WAWP 101100Z 1012/1112 09003KT 9999 SCT013=",
    "narration": "Secara umum cuaca berawan sebagian dengan jarak pandang baik. Angin dominan bertiup dengan kecepatan ringan hingga sedang (3 KT).",
    "warnings": [],
    "event_skill_context": {
      "Rainfall": {
        "applied": false,
        "reason": "event-window weighting pending because no forecast-observation pairs were available",
        "weighted_score": 0.0,
        "weighted_far": null,
        "strength": 0.0,
        "top_models": [],
        "min_events": 10,
        "threshold": null
      },
      "Wind Gust": {
        "applied": false,
        "reason": "event-window weighting pending because no forecast-observation pairs were available",
        "weighted_score": 0.0,
        "weighted_far": null,
        "strength": 0.0,
        "top_models": [],
        "min_events": 10,
        "threshold": null
      }
    }
  },
  "1700": {
    "valid_start": "2026-07-11 02:00:00",
    "issued_utc": "1700",
    "issued_day": 10,
    "base_group": {
      "dir": "110",
      "spd": "04",
      "gust": "10",
      "vis": "9999",
      "wx": "",
      "cloud": "OVC180",
      "rain": 0.0,
      "rain_mmh": 0.0,
      "trends": [],
      "badge": "MME 1700Z Shift",
      "metrics": {
        "leader_rmse": "N/A",
        "leader_strat": "N/A"
      }
    },
    "taf_text": "FTID40 WAWP 101700\nTAF WAWP 101700Z 1018/1118 11004KT CAVOK=",
    "narration": "Secara umum cuaca berawan tebal dengan jarak pandang baik. Angin dominan bertiup dengan kecepatan ringan hingga sedang (4 KT).",
    "warnings": [],
    "event_skill_context": {
      "Rainfall": {
        "applied": false,
        "reason": "event-window weighting pending because no forecast-observation pairs were available",
        "weighted_score": 0.0,
        "weighted_far": null,
        "strength": 0.0,
        "top_models": [],
        "min_events": 10,
        "threshold": null
      },
      "Wind Gust": {
        "applied": false,
        "reason": "event-window weighting pending because no forecast-observation pairs were available",
        "weighted_score": 0.0,
        "weighted_far": null,
        "strength": 0.0,
        "top_models": [],
        "min_events": 10,
        "threshold": null
      }
    }
  },
  "default": {
    "valid_start": "2026-07-10 12:00:00",
    "issued_utc": "0300",
    "issued_day": 10,
    "base_group": {
      "dir": "140",
      "spd": "02",
      "gust": "09",
      "vis": "9999",
      "wx": "",
      "cloud": "SCT042",
      "rain": 0.0,
      "rain_mmh": 0.0,
      "trends": [],
      "badge": "MME 0300Z Shift",
      "metrics": {
        "leader_rmse": "N/A",
        "leader_strat": "N/A"
      }
    },
    "taf_text": "FTID40 WAWP 100300\nTAF WAWP 100300Z 1004/1104 14002KT 9999 SCT042=",
    "narration": "Secara umum cuaca berawan sebagian dengan jarak pandang baik. Angin dominan bertiup dengan kecepatan ringan hingga sedang (2 KT).",
    "warnings": [],
    "event_skill_context": {
      "Rainfall": {
        "applied": false,
        "reason": "event-window weighting pending because no forecast-observation pairs were available",
        "weighted_score": 0.0,
        "weighted_far": null,
        "strength": 0.0,
        "top_models": [],
        "min_events": 10,
        "threshold": null
      },
      "Wind Gust": {
        "applied": false,
        "reason": "event-window weighting pending because no forecast-observation pairs were available",
        "weighted_score": 0.0,
        "weighted_far": null,
        "strength": 0.0,
        "top_models": [],
        "min_events": 10,
        "threshold": null
      }
    }
  }
}