{
  "2300": {
    "valid_start": "2026-06-30 08:00:00",
    "issued_utc": "2300",
    "issued_day": 29,
    "base_group": {
      "dir": "090",
      "spd": "06",
      "gust": "11",
      "vis": "9999",
      "wx": "",
      "cloud": "FEW019",
      "trends": [],
      "badge": "MME 2300Z Shift",
      "metrics": {
        "leader_rmse": "N/A",
        "leader_strat": "N/A"
      }
    },
    "taf_text": "FTID40 WAWP 292300\nTAF WAWP 292300Z 3000/0100 09006KT 9999 FEW019=",
    "narration": "Secara umum cuaca berawan sebagian dengan jarak pandang baik. Angin dominan bertiup dengan kecepatan ringan hingga sedang (6 KT).",
    "warnings": []
  },
  "0500": {
    "valid_start": "2026-06-30 14:00:00",
    "issued_utc": "0500",
    "issued_day": 30,
    "base_group": {
      "dir": "200",
      "spd": "05",
      "gust": "09",
      "vis": "7000",
      "wx": "",
      "cloud": "SCT040",
      "trends": [],
      "badge": "MME 0500Z Shift",
      "metrics": {
        "leader_rmse": "N/A",
        "leader_strat": "N/A"
      }
    },
    "taf_text": "FTID40 WAWP 300500\nTAF WAWP 300500Z 3006/0106 20005KT 7000 SCT040=",
    "narration": "Secara umum cuaca berawan sebagian dengan jarak pandang sedang. Angin dominan bertiup dengan kecepatan ringan hingga sedang (5 KT).",
    "warnings": []
  },
  "1100": {
    "valid_start": "2026-06-30 20:00:00",
    "issued_utc": "1100",
    "issued_day": 30,
    "base_group": {
      "dir": "070",
      "spd": "05",
      "gust": "08",
      "vis": "9999",
      "wx": "",
      "cloud": "NSC",
      "trends": [],
      "badge": "MME 1100Z Shift",
      "metrics": {
        "leader_rmse": "N/A",
        "leader_strat": "N/A"
      }
    },
    "taf_text": "FTID40 WAWP 301100\nTAF WAWP 301100Z 3012/0112 07005KT 9999 NSC=",
    "narration": "Secara umum cuaca berawan tebal dengan jarak pandang baik. Angin dominan bertiup dengan kecepatan ringan hingga sedang (5 KT).",
    "warnings": []
  },
  "1700": {
    "valid_start": "2026-07-01 02:00:00",
    "issued_utc": "1700",
    "issued_day": 30,
    "base_group": {
      "dir": "100",
      "spd": "05",
      "gust": "07",
      "vis": "9999",
      "wx": "",
      "cloud": "NSC",
      "trends": [],
      "badge": "MME 1700Z Shift",
      "metrics": {
        "leader_rmse": "N/A",
        "leader_strat": "N/A"
      }
    },
    "taf_text": "FTID40 WAWP 301700\nTAF WAWP 301700Z 3018/0118 10005KT 9999 NSC=",
    "narration": "Secara umum cuaca berawan tebal dengan jarak pandang baik. Angin dominan bertiup dengan kecepatan ringan hingga sedang (5 KT).",
    "warnings": []
  },
  "default": {
    "valid_start": "2026-06-30 05:00:00",
    "issued_utc": "2000",
    "issued_day": 29,
    "base_group": {
      "dir": "100",
      "spd": "06",
      "gust": "09",
      "vis": "9999",
      "wx": "",
      "cloud": "FEW012",
      "trends": [],
      "badge": "MME 2000Z Shift",
      "metrics": {
        "leader_rmse": "N/A",
        "leader_strat": "N/A"
      }
    },
    "taf_text": "FTID40 WAWP 292000\nTAF WAWP 292000Z 2921/3021 10006KT 9999 FEW012=",
    "narration": "Secara umum cuaca berawan sebagian dengan jarak pandang baik. Angin dominan bertiup dengan kecepatan ringan hingga sedang (6 KT).",
    "warnings": []
  }
}