{
  "2300": {
    "valid_start": "2026-07-03 08:00:00",
    "issued_utc": "2300",
    "issued_day": 2,
    "base_group": {
      "dir": "080",
      "spd": "04",
      "gust": "10",
      "vis": "9999",
      "wx": "",
      "cloud": "NSC",
      "rain": 0.0,
      "rain_mmh": 0.0,
      "trends": [],
      "badge": "MME 2300Z Shift",
      "metrics": {
        "leader_rmse": "N/A",
        "leader_strat": "N/A"
      }
    },
    "taf_text": "FTID40 WAWP 022300\nTAF WAWP 022300Z 0300/0400 08004KT CAVOK=",
    "narration": "Secara umum cuaca berawan tebal dengan jarak pandang baik. Angin dominan bertiup dengan kecepatan ringan hingga sedang (4 KT).",
    "warnings": []
  },
  "0500": {
    "valid_start": "2026-07-03 14:00:00",
    "issued_utc": "0500",
    "issued_day": 3,
    "base_group": {
      "dir": "230",
      "spd": "05",
      "gust": "12",
      "vis": "9000",
      "wx": "",
      "cloud": "BKN030",
      "rain": 0.2500085524005724,
      "rain_mmh": 0.2500085524005724,
      "trends": [],
      "badge": "MME 0500Z Shift",
      "metrics": {
        "leader_rmse": "N/A",
        "leader_strat": "N/A"
      }
    },
    "taf_text": "FTID40 WAWP 030500\nTAF WAWP 030500Z 0306/0406 23005KT 9000 BKN030=",
    "narration": "Secara umum cuaca berawan tebal dengan jarak pandang baik. Angin dominan bertiup dengan kecepatan ringan hingga sedang (5 KT).",
    "warnings": []
  },
  "1100": {
    "valid_start": "2026-07-03 20:00:00",
    "issued_utc": "1100",
    "issued_day": 3,
    "base_group": {
      "dir": "070",
      "spd": "03",
      "gust": "08",
      "vis": "9999",
      "wx": "",
      "cloud": "FEW011",
      "rain": 0.0,
      "rain_mmh": 0.0,
      "trends": [],
      "badge": "MME 1100Z Shift",
      "metrics": {
        "leader_rmse": "N/A",
        "leader_strat": "N/A"
      }
    },
    "taf_text": "FTID40 WAWP 031100\nTAF WAWP 031100Z 0312/0412 07003KT 9999 FEW011=",
    "narration": "Secara umum cuaca berawan sebagian dengan jarak pandang baik. Angin dominan bertiup dengan kecepatan ringan hingga sedang (3 KT).",
    "warnings": []
  },
  "1700": {
    "valid_start": "2026-07-03 02:00:00",
    "issued_utc": "1700",
    "issued_day": 2,
    "base_group": {
      "dir": "060",
      "spd": "04",
      "gust": "19",
      "vis": "9999",
      "wx": "",
      "cloud": "FEW001",
      "rain": 0.0,
      "rain_mmh": 0.0,
      "trends": [],
      "badge": "MME 1700Z Shift",
      "metrics": {
        "leader_rmse": "N/A",
        "leader_strat": "N/A"
      }
    },
    "taf_text": "FTID40 WAWP 021700\nTAF WAWP 021700Z 0218/0318 06004G19KT 9999 FEW001=",
    "narration": "Secara umum cuaca berawan sebagian dengan jarak pandang baik. Angin dominan bertiup dengan kecepatan ringan hingga sedang (4 KT).",
    "warnings": []
  },
  "default": {
    "valid_start": "2026-07-03 00:00:00",
    "issued_utc": "1500",
    "issued_day": 2,
    "base_group": {
      "dir": "060",
      "spd": "04",
      "gust": "20",
      "vis": "9999",
      "wx": "",
      "cloud": "FEW003",
      "rain": 0.0,
      "rain_mmh": 0.0,
      "trends": [],
      "badge": "MME 1500Z Shift",
      "metrics": {
        "leader_rmse": "N/A",
        "leader_strat": "N/A"
      }
    },
    "taf_text": "FTID40 WAWP 021500\nTAF WAWP 021500Z 0216/0316 06004G20KT 9999 FEW003=",
    "narration": "Secara umum cuaca berawan sebagian dengan jarak pandang baik. Angin dominan bertiup dengan kecepatan ringan hingga sedang (4 KT).",
    "warnings": []
  }
}